NORAD_CAT_ID,OBJECT_NAME,OBJECT_TYPE,EPOCH,MEAN_MOTION,ECCENTRICITY,INCLINATION,RA_OF_ASC_NODE,ARG_OF_PERICENTER,MEAN_ANOMALY,BSTAR,MEAN_MOTION_DOT,MEAN_MOTION_DDOT,TLE_LINE0,TLE_LINE1,TLE_LINE2,SEMIMAJOR_AXIS,PERIOD,APOGEE,PERIGEE,DECAYED
50194.0,STARLINK-3269,PAYLOAD,2022-11-10 02:59:35,15.08847937,0.0002565,53.2186,296.0072,28.1984,331.9147,-8.2717e-05,-1.605e-05,0.0,0 STARLINK-3269,1 50194U 21125AQ  22314.12471528 -.00001605  00000-0 -82717-4 0  9995,2 50194  53.2186 296.0072 0002565  28.1984 331.9147 15.08847937 52740,6917.856,95.437,541.496,537.947,0.0
50194.0,STARLINK-3269,PAYLOAD,2022-11-10 09:21:08,15.08836163,0.0002552,53.219,294.8197,28.9469,331.1664,-0.00011884,-2.179e-05,0.0,0 STARLINK-3269,1 50194U 21125AQ  22314.38968328 -.00002179  00000-0 -11884-3 0  9995,2 50194  53.2190 294.8197 0002552  28.9469 331.1664 15.08836163 53310,6917.892,95.438,541.523,537.992,0.0
50194.0,STARLINK-3269,PAYLOAD,2022-11-10 15:42:41,15.08826182,0.0002575,53.2189,293.6295,29.1794,330.9341,-0.00015477,-2.75e-05,0.0,0 STARLINK-3269,1 50194U 21125AQ  22314.65465172 -.00002750  00000-0 -15477-3 0  9991,2 50194  53.2189 293.6295 0002575  29.1794 330.9341 15.08826182 52827,6917.9230000000025,95.438,541.569,538.006,0.0
50194.0,STARLINK-3269,PAYLOAD,2022-11-11 10:47:19,15.08827552,0.000255,53.2187,290.0608,30.7284,329.3857,6.4083e-05,7.31e-06,0.0,0 STARLINK-3269,1 50194U 21125AQ  22315.44952969  .00000731  00000-0  64083-4 0  9997,2 50194  53.2187 290.0608 0002550  30.7284 329.3857 15.08827552 52948,6917.918000000002,95.438,541.548,538.019,0.0
50194.0,STARLINK-3269,PAYLOAD,2022-11-11 21:55:00,15.08840827,0.0002631,53.2191,287.9794,30.7341,329.3805,0.00010714,1.417e-05,0.0,0 STARLINK-3269,1 50194U 21125AQ  22315.91320298  .00001417  00000-0  10714-3 0  9996,2 50194  53.2191 287.9794 0002631  30.7341 329.3805 15.08840827 53548,6917.878000000002,95.438,541.563,537.923,0.0
50194.0,STARLINK-3269,PAYLOAD,2022-11-12 05:51:56,15.0883732,0.0002535,53.2196,286.4958,37.0251,323.0916,0.00016146,2.282e-05,0.0,0 STARLINK-3269,1 50194U 21125AQ  22316.24440325  .00002282  00000-0  16146-3 0  9993,2 50194  53.2196 286.4958 0002535  37.0251 323.0916 15.08837320 53067,6917.889,95.438,541.507,538.0,0.0
50194.0,STARLINK-3269,PAYLOAD,2022-11-12 10:38:05,15.08842471,0.0002641,53.2183,285.6032,31.9728,328.1424,0.00013396,1.844e-05,0.0,0 STARLINK-3269,1 50194U 21125AQ  22316.44312101  .00001844  00000-0  13396-3 0  9992,2 50194  53.2183 285.6032 0002641  31.9728 328.1424 15.08842471 53622,6917.873000000001,95.437,541.565,537.911,0.0
50194.0,STARLINK-3269,PAYLOAD,2022-11-12 15:24:14,15.08842271,0.000263,53.2188,284.7107,34.3538,325.7624,0.00023597,3.469e-05,0.0,0 STARLINK-3269,1 50194U 21125AQ  22316.64183807  .00003469  00000-0  23597-3 0  9992,2 50194  53.2188 284.7107 0002630  34.3538 325.7624 15.08842271 53650,6917.873000000001,95.437,541.558,537.919,0.0
50194.0,STARLINK-3269,PAYLOAD,2022-11-13 07:18:06,15.08836711,0.0002171,53.2198,281.7343,34.0255,326.0876,5.6336e-05,6.08e-06,0.0,0 STARLINK-3269,1 50194U 21125AQ  22317.30424594  .00000608  00000-0  56336-4 0  9997,2 50194  53.2198 281.7343 0002171  34.0255 326.0876 15.08836711 53221,6917.89,95.438,541.257,538.254,0.0
50194.0,STARLINK-3269,PAYLOAD,2022-11-13 15:15:02,15.08838187,0.0002278,53.2199,280.2478,34.0374,326.0764,4.452899999999999e-05,4.2e-06,0.0,0 STARLINK-3269,1 50194U 21125AQ  22317.63544563  .00000420  00000-0  44529-4 0  9995,2 50194  53.2199 280.2478 0002278  34.0374 326.0764 15.08838187 53804,6917.886,95.438,541.327,538.175,0.0
50194.0,STARLINK-3269,PAYLOAD,2022-11-14 07:08:54,15.08837706,0.0002653,53.2193,277.2784,30.2824,329.8321,-5.9731e-05,-1.239e-05,0.0,0 STARLINK-3269,1 50194U 21125AQ  22318.29785060 -.00001239  00000-0 -59731-4 0  9999,2 50194  53.2193 277.2784 0002653  30.2824 329.8321 15.08837706 53906,6917.887,95.438,541.5880000000002,537.9169999999998,0.0
50194.0,STARLINK-3269,PAYLOAD,2022-11-15 03:48:54,15.08844779,0.0002512,53.2193,273.4096,33.1332,326.9817,6.2443e-05,7.06e-06,0.0,0 STARLINK-3269,1 50194U 21125AQ  22319.15896293  .00000706  00000-0  62443-4 0  9996,2 50194  53.2193 273.4096 0002512  33.1332 326.9817 15.08844779 53502,6917.866,95.437,541.469,537.993,0.0
50194.0,STARLINK-3269,PAYLOAD,2022-11-16 03:39:42,15.08833097,0.0002385,53.2193,268.9502,34.2466,325.868,4.5219e-05,4.31e-06,0.0,0 STARLINK-3269,1 50194U 21125AQ  22320.15257381  .00000431  00000-0  45219-4 0  9994,2 50194  53.2193 268.9502 0002385  34.2466 325.8680 15.08833097 53654,6917.901,95.438,541.4159999999998,538.117,0.0
50194.0,STARLINK-3269,PAYLOAD,2022-11-16 13:12:01,15.08835298,0.0002449,53.2188,267.1662,31.084,329.0297,7.2258e-05,8.62e-06,0.0,0 STARLINK-3269,1 50194U 21125AQ  22320.55001276  .00000862  00000-0  72258-4 0  9999,2 50194  53.2188 267.1662 0002449  31.0840 329.0297 15.08835298 54249,6917.895,95.438,541.4540000000002,538.066,0.0
50194.0,STARLINK-3269,PAYLOAD,2022-11-17 05:05:52,15.08839468,0.0002525,53.2189,264.1923,33.3166,326.7985,1.0531e-05,-1.21e-06,0.0,0 STARLINK-3269,1 50194U 21125AQ  22321.21241525 -.00000121  00000-0  10531-4 0  9991,2 50194  53.2189 264.1923 0002525  33.3166 326.7985 15.08839468 53811,6917.882,95.438,541.494,538.0,0.0
50194.0,STARLINK-3269,PAYLOAD,2022-11-18 12:53:35,15.08844372,0.0002455,53.2187,258.2448,35.1625,324.9529,6.3446e-05,7.22e-06,0.0,0 STARLINK-3269,1 50194U 21125AQ  22322.53721104  .00000722  00000-0  63446-4 0  9992,2 50194  53.2187 258.2448 0002455  35.1625 324.9529 15.08844372 54014,6917.8669999999975,95.437,541.43,538.034,0.0
50194.0,STARLINK-3269,PAYLOAD,2022-11-19 04:47:26,15.08837697,0.0002604,53.2189,255.2712,30.9505,329.164,4.5487e-05,4.36e-06,0.0,0 STARLINK-3269,1 50194U 21125AQ  22323.19961780  .00000436  00000-0  45487-4 0  9998,2 50194  53.2189 255.2712 0002604  30.9505 329.1640 15.08837697 54117,6917.887,95.438,541.554,537.951,0.0
50194.0,STARLINK-3269,PAYLOAD,2022-11-19 12:44:22,15.0884032,0.0002631,53.2189,253.7848,31.5302,328.5847,9.565e-05,1.234e-05,0.0,0 STARLINK-3269,1 50194U 21125AQ  22323.53081362  .00001234  00000-0  95650-4 0  9999,2 50194  53.2189 253.7848 0002631  31.5302 328.5847 15.08840320 54694,6917.879,95.438,541.565,537.924,0.0
50194.0,STARLINK-3269,PAYLOAD,2022-11-20 04:38:13,15.08838128,0.0003058999999999,53.2201,250.8102,29.0174,331.0988,0.00010368,1.362e-05,0.0,0 STARLINK-3269,1 50194U 21125AQ  22324.19321437  .00001362  00000-0  10368-3 0  9996,2 50194  53.2201 250.8102 0003059  29.0174 331.0988 15.08838128 54793,6917.886,95.438,541.867,537.635,0.0
50194.0,STARLINK-3269,PAYLOAD,2022-11-21 04:29:00,15.08843433,0.0002626,53.2194,246.3492,35.4112,324.7054,2.6381e-05,1.31e-06,0.0,0 STARLINK-3269,1 50194U 21125AQ  22325.18681152  .00000131  00000-0  26381-4 0  9995,2 50194  53.2194 246.3492 0002626  35.4112 324.7054 15.08843433 54415,6917.87,95.437,541.552,537.918,0.0
50194.0,STARLINK-3269,PAYLOAD,2022-11-21 12:25:55,15.08848503,0.0002673,53.2196,244.8629,35.8252,324.2919,3.0906e-05,2.04e-06,0.0,0 STARLINK-3269,1 50194U 21125AQ  22325.51800688  .00000204  00000-0  30906-4 0  9998,2 50194  53.2196 244.8629 0002673  35.8252 324.2919 15.08848503 54994,6917.854,95.437,541.569,537.87,0.0
50194.0,STARLINK-3269,PAYLOAD,2022-11-22 01:09:01,15.08842144,0.0002521,53.2189,242.4843,36.3166,323.7997,3.1448e-05,2.12e-06,0.0,0 STARLINK-3269,1 50194U 21125AQ  22326.04792892  .00000212  00000-0  31448-4 0  9995,2 50194  53.2189 242.4843 0002521  36.3166 323.7997 15.08842144 55075,6917.874,95.437,541.4830000000002,537.995,0.0
50194.0,STARLINK-3269,PAYLOAD,2022-11-23 04:10:35,15.088309900000002,0.0002627,53.2195,237.4315,32.1936,327.9217,-5.6424e-05,-1.186e-05,0.0,0 STARLINK-3269,1 50194U 21125AQ  22327.17401635 -.00001186  00000-0 -56424-4 0  9996,2 50194  53.2195 237.4315 0002627  32.1936 327.9217 15.08830990 54713,6917.908,95.438,541.59,537.956,0.0
50194.0,STARLINK-3269,PAYLOAD,2022-11-24 04:01:21,15.08838191,0.0002646,53.2181,232.9698,29.4736,330.6405,1.9152e-05,1.6e-07,0.0,0 STARLINK-3269,1 50194U 21125AQ  22328.16761371  .00000016  00000-0  19152-4 0  9998,2 50194  53.2181 232.9698 0002646  29.4736 330.6405 15.08838191 54867,6917.886,95.438,541.581,537.92,0.0
50194.0,STARLINK-3269,PAYLOAD,2022-11-24 10:22:54,15.08838244,0.0002711,53.2181,231.78,29.6493,330.4653,1.7365e-05,-1.2e-07,0.0,0 STARLINK-3269,1 50194U 21125AQ  22328.43257432 -.00000012  00000-0  17365-4 0  9997,2 50194  53.2181 231.7800 0002711  29.6493 330.4653 15.08838244 55430,6917.886,95.438,541.626,537.875,0.0
50194.0,STARLINK-3269,PAYLOAD,2022-11-25 02:16:46,15.08832112,0.0002773,53.2182,228.8059,29.2881,330.8266,2.4549e-06,-2.49e-06,0.0,0 STARLINK-3269,1 50194U 21125AQ  22329.09498050 -.00000249  00000-0  24549-5 0  9998,2 50194  53.2182 228.8059 0002773  29.2881 330.8266 15.08832112 55004,6917.904,95.438,541.688,537.851,0.0
50194.0,STARLINK-3269,PAYLOAD,2022-11-25 19:46:00,15.08843012,0.0002671,53.2182,225.5364,30.6388,329.476,4.9392e-05,4.98e-06,0.0,0 STARLINK-3269,1 50194U 21125AQ  22329.82361771  .00000498  00000-0  49392-4 0  9995,2 50194  53.2182 225.5364 0002671  30.6388 329.4760 15.08843012 55646,6917.871,95.437,541.5840000000002,537.888,0.0
50194.0,STARLINK-3269,PAYLOAD,2022-11-26 10:04:28,15.08844114,0.0002704,53.218,222.8594,30.1314,329.9833,0.00012667,1.728e-05,0.0,0 STARLINK-3269,1 50194U 21125AQ  22330.41977509  .00001728  00000-0  12667-3 0  9995,2 50194  53.2180 222.8594 0002704  30.1314 329.9833 15.08844114 55202,6917.868,95.437,541.6030000000002,537.862,0.0
50194.0,STARLINK-3269,PAYLOAD,2022-11-26 18:01:23,15.08850751,0.000263,53.218,221.3729,30.5903,329.5242,0.00013878,1.922e-05,0.0,0 STARLINK-3269,1 50194U 21125AQ  22330.75097158  .00001922  00000-0  13878-3 0  9996,2 50194  53.2180 221.3729 0002630  30.5903 329.5242 15.08850751 55789,6917.848000000001,95.437,541.5319999999998,537.893,0.0
